CELESTIS-02             
1 25160U 98007D   22307.16933959  .00000035  00000+0  73509-4 0  9992
2 25160 107.9834 186.1036 0063935 233.9489 243.1266 14.21658899282792
CELESTIS-03             
1 26034U 99070C   22307.12184077  .00034930  00000+0  14362-2 0  9990
2 26034  98.3079 327.3283 0009680  28.7346 331.4420 15.24044352242166
